From: horizons@ssd.jpl.nasa.gov (Horizons Ephemeris System)
Subject: [Horizons] SMALL BODY #C(V30@399)_T(Lovejoy (C/2011 W3)) (1/1)
Date: February 12, 2021 at 8:46:14 AM PST

Automated mail xmit by MAIL_REQUEST, PID= 24887 Fri Feb 12 08:46:14 2021
++++++++++++++++++++++++++++++++ (part 1 of 1)  +++++++++++++++++++++++++++++++


*******************************************************************************
Ephemeris / MAIL_REQUEST Fri Feb 12 08:46:14 2021 Pasadena, USA  / Horizons
*******************************************************************************
Target body name: Lovejoy (C/2011 W3)             {source: JPL#58}
Center body name: Earth (399)                     {source: DE406}
Center-site name: Heaven on Earth Observatory, Mayhill
*******************************************************************************
Start time      : A.D. 2011-Jun-16 00:00:00.0000 TDB
Stop  time      : A.D. 2012-Jun-16 00:00:00.0000 TDB
Step-size       : 10080 minutes
*******************************************************************************
Center geodetic : 254.471000,32.9035384,2.2360684 {E-lon(deg),Lat(deg),Alt(km)}
Center cylindric: 254.471000,5362.17112,3446.1964 {E-lon(deg),Dxy(km),Dz(km)}
Center pole/equ : High-precision EOP model        {East-longitude positive}
Center radii    : 6378.1 x 6378.1 x 6356.8 km     {Equator, meridian, pole}    
Small perturbers: Yes                             {source: SB406-CPV-2}
Output units    : AU-D
Output type     : GEOMETRIC cartesian states
Output format   : 6 (LT, range, and range-rate)
EOP file        : eop.210211.p210505
EOP coverage    : DATA-BASED 1962-JAN-20 TO 2021-FEB-11. PREDICTS-> 2021-MAY-04
Reference frame : Ecliptic of J2000.0
*******************************************************************************
Initial IAU76/J2000 heliocentric ecliptic osculating elements (au, days, deg.):
 EPOCH=  2455901.5 ! 2011-Dec-06.0000000 (TDB)    RMSW= n.a.                  
  EC= .9999294152687144   QR= .005553814151232848 TP= 2455911.5118089998      
  OM= 326.3691470244605   W= 53.50921241435645    IN= 134.3558107377023       
 Equivalent ICRF heliocentric equatorial cartesian coordinates (au, au/d):
  X= 3.777408210953140E-03  Y= 4.827201187264329E-01  Z=-1.490745024246450E-01
 VX= 3.040833769322849E-03 VY=-3.291068817982927E-02 VZ= 8.676278963122092E-03
Comet physical (GM= km^3/s^2; RAD= km):                                        
  GM= n.a.                RAD= n.a.                                           
  M1=  15.3     M2=  20.6     k1=  9.3    k2=  5.      PHCOF=  .030           
*******************************************************************************
           JDTDB,            Calendar Date (TDB),                     LT,                     RG,                     RR,
**************************************************************************************************************************
$$SOE
2455728.500000000, A.D. 2011-Jun-16 00:00:00.0000,  2.516523043932038E-02,  4.357224580840874E+00, -9.796383311676479E-03,
2455735.500000000, A.D. 2011-Jun-23 00:00:00.0000,  2.473116145999919E-02,  4.282067866856504E+00, -1.126804823071121E-02,
2455742.500000000, A.D. 2011-Jun-30 00:00:00.0000,  2.423701800269402E-02,  4.196509579447873E+00, -1.275196777667373E-02,
2455749.500000000, A.D. 2011-Jul-07 00:00:00.0000,  2.368267767872871E-02,  4.100528527672607E+00, -1.423025727728354E-02,
2455756.500000000, A.D. 2011-Jul-14 00:00:00.0000,  2.306904475544597E-02,  3.994281280567606E+00, -1.567526078708427E-02,
2455763.500000000, A.D. 2011-Jul-21 00:00:00.0000,  2.239761274438244E-02,  3.878026431639288E+00, -1.708835686735788E-02,
2455770.500000000, A.D. 2011-Jul-28 00:00:00.0000,  2.166961021107596E-02,  3.751976700416436E+00, -1.847324301969842E-02,
2455777.500000000, A.D. 2011-Aug-04 00:00:00.0000,  2.088650335293675E-02,  3.616385951111088E+00, -1.981383836128536E-02,
2455784.500000000, A.D. 2011-Aug-11 00:00:00.0000,  2.005073131978733E-02,  3.471676509423324E+00, -2.108390407926197E-02,
2455791.500000000, A.D. 2011-Aug-18 00:00:00.0000,  1.916523053757969E-02,  3.318356801746005E+00, -2.228683930304975E-02,
2455798.500000000, A.D. 2011-Aug-25 00:00:00.0000,  1.823264624310242E-02,  3.156884836631260E+00, -2.342631576328207E-02,
2455805.500000000, A.D. 2011-Sep-01 00:00:00.0000,  1.725584504651782E-02,  2.987756952242684E+00, -2.448665648220780E-02,
2455812.500000000, A.D. 2011-Sep-08 00:00:00.0000,  1.623867715026462E-02,  2.811639790467300E+00, -2.544074239823932E-02,
2455819.500000000, A.D. 2011-Sep-15 00:00:00.0000,  1.518552285147226E-02,  2.629291776242628E+00, -2.629052614170732E-02,
2455826.500000000, A.D. 2011-Sep-22 00:00:00.0000,  1.410059551557595E-02,  2.441442431179318E+00, -2.703522711571644E-02,
2455833.500000000, A.D. 2011-Sep-29 00:00:00.0000,  1.298853487899936E-02,  2.248895100736199E+00, -2.765288658268023E-02,
2455840.500000000, A.D. 2011-Oct-06 00:00:00.0000,  1.185531969574429E-02,  2.052684974078824E+00, -2.810382489265299E-02,
2455847.500000000, A.D. 2011-Oct-13 00:00:00.0000,  1.070816561795640E-02,  1.854061402647532E+00, -2.836625402975204E-02,
2455854.500000000, A.D. 2011-Oct-20 00:00:00.0000,  9.555439553548787E-03,  1.654473071639647E+00, -2.839547223586792E-02,
2455861.500000000, A.D. 2011-Oct-27 00:00:00.0000,  8.408363312168468E-03,  1.455862977164555E+00, -2.808789585422616E-02,
2455868.500000000, A.D. 2011-Nov-03 00:00:00.0000,  7.284203946674078E-03,  1.261220816747012E+00, -2.723965223796266E-02,
2455875.500000000, A.D. 2011-Nov-10 00:00:00.0000,  6.211267604692225E-03,  1.075447647920544E+00, -2.548412877661020E-02,
2455882.500000000, A.D. 2011-Nov-17 00:00:00.0000,  5.239435121927117E-03,  9.071800696611612E-01, -2.206507854311898E-02,
2455889.500000000, A.D. 2011-Nov-24 00:00:00.0000,  4.462052179477054E-03,  7.725803856353275E-01, -1.554134777403177E-02,
2455896.500000000, A.D. 2011-Dec-01 00:00:00.0000,  4.042694941787490E-03,  6.999709307519154E-01, -4.039775959593916E-03,
2455903.500000000, A.D. 2011-Dec-08 00:00:00.0000,  4.200719992256094E-03,  7.273321200702764E-01,  1.307941501590809E-02,
2455910.500000000, A.D. 2011-Dec-15 00:00:00.0000,  5.279535764487297E-03,  9.141232806876625E-01,  5.245712253721944E-02,
2455917.500000000, A.D. 2011-Dec-22 00:00:00.0000,  4.233154694546014E-03,  7.329480146845005E-01, -2.741511895390070E-02,
2455924.500000000, A.D. 2011-Dec-29 00:00:00.0000,  3.358211490253654E-03,  5.814562949573634E-01, -1.616885885541911E-02,
2455931.500000000, A.D. 2012-Jan-05 00:00:00.0000,  2.921982023049886E-03,  5.059255040921432E-01, -4.885770031546874E-03,
2455938.500000000, A.D. 2012-Jan-12 00:00:00.0000,  2.970667490616746E-03,  5.143551314910880E-01,  7.113467917031283E-03,
2455945.500000000, A.D. 2012-Jan-19 00:00:00.0000,  3.457757011668602E-03,  5.986920676981573E-01,  1.617747263425444E-02,
2455952.500000000, A.D. 2012-Jan-26 00:00:00.0000,  4.235878431613188E-03,  7.334196151385262E-01,  2.158598489190921E-02,
2455959.500000000, A.D. 2012-Feb-02 00:00:00.0000,  5.181898930657977E-03,  8.972179869577921E-01,  2.467798573563519E-02,
2455966.500000000, A.D. 2012-Feb-09 00:00:00.0000,  6.225168237122015E-03,  1.077854467816685E+00,  2.652491648223561E-02,
2455973.500000000, A.D. 2012-Feb-16 00:00:00.0000,  7.327705734067212E-03,  1.268752917746321E+00,  2.768865536188477E-02,
2455980.500000000, A.D. 2012-Feb-23 00:00:00.0000,  8.467568610847265E-03,  1.466114056857280E+00,  2.842380420579406E-02,
2455987.500000000, A.D. 2012-Mar-01 00:00:00.0000,  9.629931711764747E-03,  1.667370989011836E+00,  2.884895477957745E-02,
2455994.500000000, A.D. 2012-Mar-08 00:00:00.0000,  1.080382211934177E-02,  1.870623812443803E+00,  2.904070041472426E-02,
2456001.500000000, A.D. 2012-Mar-15 00:00:00.0000,  1.198093169144519E-02,  2.074434016935242E+00,  2.905234301495864E-02,
2456008.500000000, A.D. 2012-Mar-22 00:00:00.0000,  1.315429958035726E-02,  2.277596369064894E+00,  2.889479963036904E-02,
2456015.500000000, A.D. 2012-Mar-29 00:00:00.0000,  1.431711222687143E-02,  2.478931137626664E+00,  2.857343349997576E-02,
2456022.500000000, A.D. 2012-Apr-05 00:00:00.0000,  1.546314241663003E-02,  2.677360113877945E+00,  2.811007285332708E-02,
2456029.500000000, A.D. 2012-Apr-12 00:00:00.0000,  1.658720461664008E-02,  2.871985450613391E+00,  2.753001514336546E-02,
2456036.500000000, A.D. 2012-Apr-19 00:00:00.0000,  1.768456934796255E-02,  3.061988263939318E+00,  2.682718083644725E-02,
2456043.500000000, A.D. 2012-Apr-26 00:00:00.0000,  1.875015742842446E-02,  3.246489120724044E+00,  2.599952058165714E-02,
2456050.500000000, A.D. 2012-May-03 00:00:00.0000,  1.977926809598539E-02,  3.424674109250743E+00,  2.506533054728851E-02,
2456057.500000000, A.D. 2012-May-10 00:00:00.0000,  2.076813256016999E-02,  3.595890683676897E+00,  2.404785756930907E-02,
2456064.500000000, A.D. 2012-May-17 00:00:00.0000,  2.171335698528278E-02,  3.759551219567616E+00,  2.293909363618029E-02,
2456071.500000000, A.D. 2012-May-24 00:00:00.0000,  2.261115347096540E-02,  3.914999862306710E+00,  2.173711485443554E-02,
2456078.500000000, A.D. 2012-May-31 00:00:00.0000,  2.345813709647806E-02,  4.061650531036017E+00,  2.046100529896166E-02,
2456085.500000000, A.D. 2012-Jun-07 00:00:00.0000,  2.425187695746714E-02,  4.199082327714143E+00,  1.913406293590677E-02,
2456092.500000000, A.D. 2012-Jun-14 00:00:00.0000,  2.499031243381648E-02,  4.326938467027970E+00,  1.774843768711793E-02,
$$EOE
**************************************************************************************************************************
Coordinate system description:

 Ecliptic at the standard reference epoch

   Reference epoch: J2000.0
   X-Y plane: adopted Earth orbital plane at the reference epoch
              Note: obliquity of 84381.448 arcseconds (IAU76) wrt ICRF equator
   X-axis   : ICRF
   Z-axis   : perpendicular to the X-Y plane in the directional (+ or -) sense
              of Earth's north pole at the reference epoch.

 Symbol meaning [1 au= 149597870.691 km, 1 day= 86400.0 s]:

   JDTDB    Julian Day Number, Barycentric Dynamical Time
     LT     One-way down-leg Newtonian light-time (day)
     RG     Range; distance from coordinate center (au)
     RR     Range-rate; radial velocity wrt coord. center (au/day)

Geometric states/elements have no aberrations applied.


Computations by ...
    Solar System Dynamics Group, Horizons On-Line Ephemeris System
    4800 Oak Grove Drive, Jet Propulsion Laboratory
    Pasadena, CA  91109   USA
    Information  : https://ssd.jpl.nasa.gov/
    Documentation: https://ssd.jpl.nasa.gov/?horizons_doc
    Connect      : https://ssd.jpl.nasa.gov/?horizons (browser)
                   telnet ssd.jpl.nasa.gov 6775       (command-line)
                   e-mail command interface available
                   Script and CGI interfaces available
    Author       : Jon.D.Giorgini@jpl.nasa.gov
*******************************************************************************
